ONEWEB-0228             
1 48780U 21045P   24212.44638772 -.00000036  00000+0 -13157-3 0  9991
2 48780  87.9017  35.8357 0001704  84.3312 275.8012 13.15071023154036
